[{"CCSDS_OMM_VERS":"2.0","COMMENT":"GENERATED VIA SPACE-TRACK.ORG API","CREATION_DATE":"2023-04-27T22:46:12","ORIGINATOR":"18 SPCS","OBJECT_NAME":"KSF3-C","OBJECT_ID":"2023-001K","CENTER_NAME":"EARTH","REF_FRAME":"TEME","TIME_SYSTEM":"UTC","MEAN_ELEMENT_THEORY":"SGP4","EPOCH":"2023-04-27T16:57:28.913760","MEAN_MOTION":"15.15672526","ECCENTRICITY":"0.00098310","INCLINATION":"97.4809","RA_OF_ASC_NODE":"177.9662","ARG_OF_PERICENTER":"183.4540","MEAN_ANOMALY":"273.0597","EPHEMERIS_TYPE":"0","CLASSIFICATION_TYPE":"U","NORAD_CAT_ID":"55018","ELEMENT_SET_NO":"999","REV_AT_EPOCH":"1741","BSTAR":"0.00092536000000","MEAN_MOTION_DOT":"0.00017591","MEAN_MOTION_DDOT":"0.0000000000000","SEMIMAJOR_AXIS":"6897.075","PERIOD":"95.007","APOAPSIS":"525.720","PERIAPSIS":"512.159","OBJECT_TYPE":"PAYLOAD","RCS_SIZE":"MEDIUM","COUNTRY_CODE":"LUXE","LAUNCH_DATE":"2023-01-03","SITE":"AFETR","DECAY_DATE":null,"FILE":"3894797","GP_ID":"230841803","TLE_LINE0":"0 KSF3-C","TLE_LINE1":"1 55018U 23001K   23117.70658465  .00017591  00000-0  92536-3 0  9991","TLE_LINE2":"2 55018  97.4809 177.9662 0009831 183.4540 273.0597 15.15672526 17418"},{"CCSDS_OMM_VERS":"2.0","COMMENT":"GENERATED VIA SPACE-TRACK.ORG API","CREATION_DATE":"2023-04-28T07:06:12","ORIGINATOR":"18 SPCS","OBJECT_NAME":"KSF3-C","OBJECT_ID":"2023-001K","CENTER_NAME":"EARTH","REF_FRAME":"TEME","TIME_SYSTEM":"UTC","MEAN_ELEMENT_THEORY":"SGP4","EPOCH":"2023-04-28T05:36:07.579584","MEAN_MOTION":"15.15676962","ECCENTRICITY":"0.00113370","INCLINATION":"97.4809","RA_OF_ASC_NODE":"178.4926","ARG_OF_PERICENTER":"178.6254","MEAN_ANOMALY":"270.6670","EPHEMERIS_TYPE":"0","CLASSIFICATION_TYPE":"U","NORAD_CAT_ID":"55018","ELEMENT_SET_NO":"999","REV_AT_EPOCH":"1749","BSTAR":"0.00117770000000","MEAN_MOTION_DOT":"0.00022433","MEAN_MOTION_DDOT":"0.0000000000000","SEMIMAJOR_AXIS":"6897.061","PERIOD":"95.007","APOAPSIS":"526.745","PERIAPSIS":"511.107","OBJECT_TYPE":"PAYLOAD","RCS_SIZE":"MEDIUM","COUNTRY_CODE":"LUXE","LAUNCH_DATE":"2023-01-03","SITE":"AFETR","DECAY_DATE":null,"FILE":"3895131","GP_ID":"230849398","TLE_LINE0":"0 KSF3-C","TLE_LINE1":"1 55018U 23001K   23118.23342106  .00022433  00000-0  11777-2 0  9990","TLE_LINE2":"2 55018  97.4809 178.4926 0011337 178.6254 270.6670 15.15676962 17490"},{"CCSDS_OMM_VERS":"2.0","COMMENT":"GENERATED VIA SPACE-TRACK.ORG API","CREATION_DATE":"2023-04-28T15:46:13","ORIGINATOR":"18 SPCS","OBJECT_NAME":"KSF3-C","OBJECT_ID":"2023-001K","CENTER_NAME":"EARTH","REF_FRAME":"TEME","TIME_SYSTEM":"UTC","MEAN_ELEMENT_THEORY":"SGP4","EPOCH":"2023-04-28T13:43:49.905696","MEAN_MOTION":"15.15694089","ECCENTRICITY":"0.00103470","INCLINATION":"97.4811","RA_OF_ASC_NODE":"178.8211","ARG_OF_PERICENTER":"177.7693","MEAN_ANOMALY":"318.3838","EPHEMERIS_TYPE":"0","CLASSIFICATION_TYPE":"U","NORAD_CAT_ID":"55018","ELEMENT_SET_NO":"999","REV_AT_EPOCH":"1754","BSTAR":"0.00087153000000","MEAN_MOTION_DOT":"0.00016574","MEAN_MOTION_DDOT":"0.0000000000000","SEMIMAJOR_AXIS":"6897.009","PERIOD":"95.006","APOAPSIS":"526.011","PERIAPSIS":"511.738","OBJECT_TYPE":"PAYLOAD","RCS_SIZE":"MEDIUM","COUNTRY_CODE":"LUXE","LAUNCH_DATE":"2023-01-03","SITE":"AFETR","DECAY_DATE":null,"FILE":"3895497","GP_ID":"230857797","TLE_LINE0":"0 KSF3-C","TLE_LINE1":"1 55018U 23001K   23118.57210539  .00016574  00000-0  87153-3 0  9992","TLE_LINE2":"2 55018  97.4811 178.8211 0010347 177.7693 318.3838 15.15694089 17543"},{"CCSDS_OMM_VERS":"2.0","COMMENT":"GENERATED VIA SPACE-TRACK.ORG API","CREATION_DATE":"2023-04-28T20:22:50","ORIGINATOR":"18 SPCS","OBJECT_NAME":"KSF3-C","OBJECT_ID":"2023-001K","CENTER_NAME":"EARTH","REF_FRAME":"TEME","TIME_SYSTEM":"UTC","MEAN_ELEMENT_THEORY":"SGP4","EPOCH":"2023-04-28T13:43:49.905696","MEAN_MOTION":"15.15694089","ECCENTRICITY":"0.00103470","INCLINATION":"97.4811","RA_OF_ASC_NODE":"178.8211","ARG_OF_PERICENTER":"177.7693","MEAN_ANOMALY":"318.3838","EPHEMERIS_TYPE":"0","CLASSIFICATION_TYPE":"U","NORAD_CAT_ID":"55018","ELEMENT_SET_NO":"999","REV_AT_EPOCH":"1754","BSTAR":"0.00087153000000","MEAN_MOTION_DOT":"0.00016574","MEAN_MOTION_DDOT":"0.0000000000000","SEMIMAJOR_AXIS":"6897.009","PERIOD":"95.006","APOAPSIS":"526.011","PERIAPSIS":"511.738","OBJECT_TYPE":"PAYLOAD","RCS_SIZE":"MEDIUM","COUNTRY_CODE":"LUXE","LAUNCH_DATE":"2023-01-03","SITE":"AFETR","DECAY_DATE":null,"FILE":"3895770","GP_ID":"230888455","TLE_LINE0":"0 KSF3-C","TLE_LINE1":"1 55018U 23001K   23118.57210539  .00016574  00000-0  87153-3 0  9992","TLE_LINE2":"2 55018  97.4811 178.8211 0010347 177.7693 318.3838 15.15694089 17543"},{"CCSDS_OMM_VERS":"2.0","COMMENT":"GENERATED VIA SPACE-TRACK.ORG API","CREATION_DATE":"2023-04-28T16:56:12","ORIGINATOR":"18 SPCS","OBJECT_NAME":"KSF3-C","OBJECT_ID":"2023-001K","CENTER_NAME":"EARTH","REF_FRAME":"TEME","TIME_SYSTEM":"UTC","MEAN_ELEMENT_THEORY":"SGP4","EPOCH":"2023-04-28T14:42:59.251392","MEAN_MOTION":"15.15677037","ECCENTRICITY":"0.00111280","INCLINATION":"97.4813","RA_OF_ASC_NODE":"178.8633","ARG_OF_PERICENTER":"178.6996","MEAN_ANOMALY":"181.4268","EPHEMERIS_TYPE":"0","CLASSIFICATION_TYPE":"U","NORAD_CAT_ID":"55018","ELEMENT_SET_NO":"999","REV_AT_EPOCH":"1755","BSTAR":"0.00062339000000","MEAN_MOTION_DOT":"0.00011825","MEAN_MOTION_DDOT":"0.0000000000000","SEMIMAJOR_AXIS":"6897.061","PERIOD":"95.007","APOAPSIS":"526.601","PERIAPSIS":"511.251","OBJECT_TYPE":"PAYLOAD","RCS_SIZE":"MEDIUM","COUNTRY_CODE":"LUXE","LAUNCH_DATE":"2023-01-03","SITE":"AFETR","DECAY_DATE":null,"FILE":"3895693","GP_ID":"230862057","TLE_LINE0":"0 KSF3-C","TLE_LINE1":"1 55018U 23001K   23118.61318578  .00011825  00000-0  62339-3 0  9992","TLE_LINE2":"2 55018  97.4813 178.8633 0011128 178.6996 181.4268 15.15677037 17558"},{"CCSDS_OMM_VERS":"2.0","COMMENT":"GENERATED VIA SPACE-TRACK.ORG API","CREATION_DATE":"2023-04-28T22:26:12","ORIGINATOR":"18 SPCS","OBJECT_NAME":"KSF3-C","OBJECT_ID":"2023-001K","CENTER_NAME":"EARTH","REF_FRAME":"TEME","TIME_SYSTEM":"UTC","MEAN_ELEMENT_THEORY":"SGP4","EPOCH":"2023-04-28T18:29:58.093728","MEAN_MOTION":"15.15682384","ECCENTRICITY":"0.00112660","INCLINATION":"97.4809","RA_OF_ASC_NODE":"179.0157","ARG_OF_PERICENTER":"178.3257","MEAN_ANOMALY":"321.3313","EPHEMERIS_TYPE":"0","CLASSIFICATION_TYPE":"U","NORAD_CAT_ID":"55018","ELEMENT_SET_NO":"999","REV_AT_EPOCH":"1757","BSTAR":"0.00066876000000","MEAN_MOTION_DOT":"0.00012695","MEAN_MOTION_DDOT":"0.0000000000000","SEMIMAJOR_AXIS":"6897.045","PERIOD":"95.007","APOAPSIS":"526.680","PERIAPSIS":"511.139","OBJECT_TYPE":"PAYLOAD","RCS_SIZE":"MEDIUM","COUNTRY_CODE":"LUXE","LAUNCH_DATE":"2023-01-03","SITE":"AFETR","DECAY_DATE":null,"FILE":"3895827","GP_ID":"230891212","TLE_LINE0":"0 KSF3-C","TLE_LINE1":"1 55018U 23001K   23118.77081127  .00012695  00000-0  66876-3 0  9992","TLE_LINE2":"2 55018  97.4809 179.0157 0011266 178.3257 321.3313 15.15682384 17576"},{"CCSDS_OMM_VERS":"2.0","COMMENT":"GENERATED VIA SPACE-TRACK.ORG API","CREATION_DATE":"2023-04-29T06:56:13","ORIGINATOR":"18 SPCS","OBJECT_NAME":"KSF3-C","OBJECT_ID":"2023-001K","CENTER_NAME":"EARTH","REF_FRAME":"TEME","TIME_SYSTEM":"UTC","MEAN_ELEMENT_THEORY":"SGP4","EPOCH":"2023-04-29T03:30:52.396128","MEAN_MOTION":"15.15689938","ECCENTRICITY":"0.00115260","INCLINATION":"97.4811","RA_OF_ASC_NODE":"179.3868","ARG_OF_PERICENTER":"177.1070","MEAN_ANOMALY":"210.8516","EPHEMERIS_TYPE":"0","CLASSIFICATION_TYPE":"U","NORAD_CAT_ID":"55018","ELEMENT_SET_NO":"999","REV_AT_EPOCH":"1763","BSTAR":"0.00064609000000","MEAN_MOTION_DOT":"0.00012265","MEAN_MOTION_DDOT":"0.0000000000000","SEMIMAJOR_AXIS":"6897.022","PERIOD":"95.006","APOAPSIS":"526.836","PERIAPSIS":"510.937","OBJECT_TYPE":"PAYLOAD","RCS_SIZE":"MEDIUM","COUNTRY_CODE":"LUXE","LAUNCH_DATE":"2023-01-03","SITE":"AFETR","DECAY_DATE":null,"FILE":"3896109","GP_ID":"230897019","TLE_LINE0":"0 KSF3-C","TLE_LINE1":"1 55018U 23001K   23119.14643977  .00012265  00000-0  64609-3 0  9996","TLE_LINE2":"2 55018  97.4811 179.3868 0011526 177.1070 210.8516 15.15689938 17636"},{"CCSDS_OMM_VERS":"2.0","COMMENT":"GENERATED VIA SPACE-TRACK.ORG API","CREATION_DATE":"2023-04-29T14:36:12","ORIGINATOR":"18 SPCS","OBJECT_NAME":"KSF3-C","OBJECT_ID":"2023-001K","CENTER_NAME":"EARTH","REF_FRAME":"TEME","TIME_SYSTEM":"UTC","MEAN_ELEMENT_THEORY":"SGP4","EPOCH":"2023-04-29T10:18:07.941312","MEAN_MOTION":"15.15697251","ECCENTRICITY":"0.00114440","INCLINATION":"97.4812","RA_OF_ASC_NODE":"179.6663","ARG_OF_PERICENTER":"176.0325","MEAN_ANOMALY":"314.1462","EPHEMERIS_TYPE":"0","CLASSIFICATION_TYPE":"U","NORAD_CAT_ID":"55018","ELEMENT_SET_NO":"999","REV_AT_EPOCH":"1767","BSTAR":"0.00064939000000","MEAN_MOTION_DOT":"0.00012330","MEAN_MOTION_DDOT":"0.0000000000000","SEMIMAJOR_AXIS":"6897.000","PERIOD":"95.006","APOAPSIS":"526.758","PERIAPSIS":"510.972","OBJECT_TYPE":"PAYLOAD","RCS_SIZE":"MEDIUM","COUNTRY_CODE":"LUXE","LAUNCH_DATE":"2023-01-03","SITE":"AFETR","DECAY_DATE":null,"FILE":"3896376","GP_ID":"230902893","TLE_LINE0":"0 KSF3-C","TLE_LINE1":"1 55018U 23001K   23119.42925858  .00012330  00000-0  64939-3 0  9997","TLE_LINE2":"2 55018  97.4812 179.6663 0011444 176.0325 314.1462 15.15697251 17672"}]